line1,line2,validFromUtcTime
1 00000U 00000E   26001.00000000  .00000000  00000-0  27772-4 0    01,2 00000  88.9289  30.3309 0010049 269.8625  60.2644 13.55309301    08,2026-01-01T00:00:00Z
1 00000U 00000E   26002.00000000  .00000000  00000-0  27772-4 0    02,2 00000  88.9289  30.2219 0010049 266.9521 259.3763 13.55309340    06,2026-01-02T00:00:00Z
